33064,ORBCOMM FM37,2008,97.4,-1.0,-,48.44,Inactive,0,LEO,Russia,ORBCOMM,Unknown,Unknown,Unknown,1 33064U 08031E   24351.84799722  .00003673  00000+0  52648-3 0  9997,2 33064  48.4384 129.7065 0006292 302.3033 223.7731 14.78450030887372,14.7845003,0.0006292,LEO
33065,ORBCOMM FM40,2008,97.28,-1.0,-,48.44,Inactive,0,LEO,Russia,ORBCOMM,Unknown,Unknown,Unknown,1 33065U 08031F   24351.80722667  .00005129  00000+0  69239-3 0  9990,2 33065  48.4410 116.7591 0007597 313.1744 169.6454 14.80330375887564,14.80330375,0.0007597,LEO
40088,ORBCOMM FM106,2014,98.06,-1.0,-,47.06,Inactive,0,LEO,USA,ORBCOMM,Unknown,Unknown,Unknown,1 40088U 14040C   24350.46502839  .00002642  00000+0  48201-3 0  9991,2 40088  47.0609   1.2780 0018314 294.1968  65.7008 14.68498146556678,14.68498146,0.0018314,LEO
40089,ORBCOMM FM111,2014,97.01,-1.0,-,47.0,Inactive,0,LEO,USA,ORBCOMM,Unknown,Unknown,Unknown,1 40089U 14040D   24351.07538462  .00005400  00000+0  65465-3 0  9997,2 40089  47.0012 232.6158 0030505  37.5723 322.7297 14.84404018563004,14.84404018,0.0030505,LEO
40090,ORBCOMM FM104,2014,98.9,-1.0,-,47.0,Inactive,0,LEO,USA,ORBCOMM,Unknown,Unknown,Unknown,1 40090U 14040E   24351.30888058  .00001181  00000+0  30313-3 0  9990,2 40090  47.0037 192.1120 0016206  90.7807 269.4934 14.56076109554064,14.56076109,0.0016206,LEO
40086,ORBCOMM FM109,2014,98.8,172.0,+,47.0,Active,1,LEO,USA,ORBCOMM,Commercial,Communications,Falcon,1 40086U 14040A   24351.47963397  .00002063  00000+0  48642-3 0  9997,2 40086  47.0006 158.8175 0002429 227.4939 132.5741 14.57481223554526,14.57481223,0.0002429,LEO
40087,ORBCOMM FM107,2014,98.79,172.0,+,47.0,Active,1,LEO,USA,ORBCOMM,Commercial,Communications,Falcon,1 40087U 14040B   24351.79161576  .00001495  00000+0  36155-3 0  9996,2 40087  47.0038 158.3850 0001736 193.5246 166.5593 14.57629151554561,14.57629151,0.0001736,LEO
